EUTELSAT 21B            
1 38992U 12062B   25230.53953348  .00000118  00000+0  00000+0 0  9992
2 38992   0.0697  10.7483 0003121 131.6115  40.6074  1.00273604 46793
EUTELSAT 70B            
1 39020U 12069A   25230.40639046 -.00000056  00000+0  00000+0 0  9996
2 39020   0.0656  12.7098 0003618 135.7859  35.3085  1.00273087 46570
EUTELSAT 117 WEST A     
1 39122U 13012A   25230.56988947 -.00000025  00000+0  00000+0 0  9998
2 39122   0.0137  74.6031 0002819  86.6396 254.2732  1.00271130 45390
EUTELSAT 7B             
1 39163U 13022A   25230.24697767  .00000037  00000+0  00000+0 0  9998
2 39163   0.0714 339.4269 0001886  66.1015  17.2143  1.00271074 44912
EXPRESS-AT1             
1 39612U 14010A   25230.54638017  .00000066  00000+0  00000+0 0  9993
2 39612   0.0091 138.0142 0000360 207.7293 234.0973  1.00270929 41789
EXPRESS-AT2             
1 39613U 14010B   25230.58759609 -.00000294  00000+0  00000+0 0  9993
2 39613   0.0306 259.1464 0000186  78.9404 340.4734  1.00272327 41465
EUTELSAT 3B             
1 39773U 14030A   25230.39295707  .00000008  00000+0  00000+0 0  9997
2 39773   0.0650  12.7711 0004093 140.9379 317.8395  1.00272328 41039
EUTELSAT 115 WEST B     
1 40425U 15010B   25230.56433729 -.00000037  00000+0  00000+0 0  9992
2 40425   0.0048   5.4992 0000299  67.1008 342.8121  1.00269709 38354
